start=new Date('2022-03-18T00:00:00.000Z').valueOf();
sats=[{"CENTER_NAME":"EARTH","OBJECT_TYPE":"PAYLOAD","CLASSIFICATION_TYPE":"U","MEAN_ELEMENT_THEORY":"SGP4","OBJECT_ID":"2020-019T","DECAY_DATE":null,"MEAN_MOTION":"15.06395901","INCLINATION":"53.0528","REF_FRAME":"TEME","TLE_LINE1":"1 45377U 20019T   22076.89015290  .00011357  00000-0  78018-3 0  9993","ELEMENT_SET_NO":"999","TIME_SYSTEM":"UTC","RCS_SIZE":"LARGE","LAUNCH_DATE":"2020-03-18","TLE_LINE2":"2 45377  53.0528 208.4815 0001630  65.8802 294.2358 15.06395901110765","RA_OF_ASC_NODE":"208.4815","COUNTRY_CODE":"US","ARG_OF_PERICENTER":"65.8802","MEAN_ANOMALY":"294.2358","FILE":"3363151","PERIAPSIS":"546.097","ECCENTRICITY":"0.00016300","BSTAR":"0.00078018000000","SITE":"AFETR","OBJECT_NAME":"STARLINK-1305","MEAN_MOTION_DDOT":"0.0000000000000","PERIOD":"95.592","EPHEMERIS_TYPE":"0","SEMIMAJOR_AXIS":"6925.361","NORAD_CAT_ID":"45377","APOAPSIS":"548.355","EPOCH":"2022-03-17T21:21:49.210560","MEAN_MOTION_DOT":"0.00011357","GP_ID":"198989683","REV_AT_EPOCH":"11076"},{"MEAN_ELEMENT_THEORY":"SGP4","CLASSIFICATION_TYPE":"U","DECAY_DATE":null,"OBJECT_ID":"2020-019U","CENTER_NAME":"EARTH","OBJECT_TYPE":"PAYLOAD","RCS_SIZE":"LARGE","TIME_SYSTEM":"UTC","TLE_LINE2":"2 45378  53.0530 209.4406 0001283  76.6529 283.4603 15.06394079110731","LAUNCH_DATE":"2020-03-18","ELEMENT_SET_NO":"999","TLE_LINE1":"1 45378U 20019U   22076.68003680  .00000939  00000-0  81944-4 0  9998","REF_FRAME":"TEME","MEAN_MOTION":"15.06394079","INCLINATION":"53.0530","SITE":"AFETR","MEAN_MOTION_DDOT":"0.0000000000000","OBJECT_NAME":"STARLINK-1310","FILE":"3363151","MEAN_ANOMALY":"283.4603","ARG_OF_PERICENTER":"76.6529","COUNTRY_CODE":"US","RA_OF_ASC_NODE":"209.4406","BSTAR":"0.00008194400000","ECCENTRICITY":"0.00012830","PERIAPSIS":"546.343","GP_ID":"198989933","MEAN_MOTION_DOT":"0.00000939","EPOCH":"2022-03-17T16:19:15.179520","REV_AT_EPOCH":"11073","EPHEMERIS_TYPE":"0","PERIOD":"95.593","APOAPSIS":"548.120","SEMIMAJOR_AXIS":"6925.367","NORAD_CAT_ID":"45378"},{"GP_ID":"198990184","EPOCH":"2022-03-17T19:35:38.380416","MEAN_MOTION_DOT":"0.00003502","REV_AT_EPOCH":"11075","EPHEMERIS_TYPE":"0","PERIOD":"95.593","APOAPSIS":"548.211","SEMIMAJOR_AXIS":"6925.371","NORAD_CAT_ID":"45379","SITE":"AFETR","OBJECT_NAME":"STARLINK-1319","MEAN_MOTION_DDOT":"0.0000000000000","MEAN_ANOMALY":"290.8216","FILE":"3363151","ARG_OF_PERICENTER":"69.2924","COUNTRY_CODE":"US","RA_OF_ASC_NODE":"208.8169","PERIAPSIS":"546.261","ECCENTRICITY":"0.00014080","BSTAR":"0.00025390000000","RCS_SIZE":"LARGE","TIME_SYSTEM":"UTC","LAUNCH_DATE":"2020-03-18","TLE_LINE2":"2 45379  53.0525 208.8169 0001408  69.2924 290.8216 15.06392750110759","TLE_LINE1":"1 45379U 20019V   22076.81641644  .00003502  00000-0  25390-3 0  9993","REF_FRAME":"TEME","ELEMENT_SET_NO":"999","MEAN_MOTION":"15.06392750","INCLINATION":"53.0525","CLASSIFICATION_TYPE":"U","MEAN_ELEMENT_THEORY":"SGP4","DECAY_DATE":null,"OBJECT_ID":"2020-019V","CENTER_NAME":"EARTH","OBJECT_TYPE":"PAYLOAD"},{"RCS_SIZE":"LARGE","TIME_SYSTEM":"UTC","TLE_LINE2":"2 45380  53.0524 188.8199 0001419  70.6430 289.4713 15.06387641111020","LAUNCH_DATE":"2020-03-18","ELEMENT_SET_NO":"999","TLE_LINE1":"1 45380U 20019W   22076.81458454  .00007335  00000-0  51094-3 0  9998","REF_FRAME":"TEME","INCLINATION":"53.0524","MEAN_MOTION":"15.06387641","MEAN_ELEMENT_THEORY":"SGP4","CLASSIFICATION_TYPE":"U","DECAY_DATE":null,"OBJECT_ID":"2020-019W","CENTER_NAME":"EARTH","OBJECT_TYPE":"PAYLOAD","GP_ID":"198990935","MEAN_MOTION_DOT":"0.00007335","EPOCH":"2022-03-17T19:33:00.104256","REV_AT_EPOCH":"11102","EPHEMERIS_TYPE":"0","PERIOD":"95.593","APOAPSIS":"548.234","SEMIMAJOR_AXIS":"6925.386","NORAD_CAT_ID":"45380","SITE":"AFETR","MEAN_MOTION_DDOT":"0.0000000000000","OBJECT_NAME":"STARLINK-1207","FILE":"3363151","MEAN_ANOMALY":"289.4713","COUNTRY_CODE":"US","RA_OF_ASC_NODE":"188.8199","ARG_OF_PERICENTER":"70.6430","ECCENTRICITY":"0.00014190","BSTAR":"0.00051094000000","PERIAPSIS":"546.269"},{"EPOCH":"2022-03-17T15:02:18.889728","MEAN_MOTION_DOT":"0.00003861","GP_ID":"198989183","REV_AT_EPOCH":"11099","PERIOD":"95.594","EPHEMERIS_TYPE":"0","NORAD_CAT_ID":"45381","SEMIMAJOR_AXIS":"6925.418","APOAPSIS":"548.139","SITE":"AFETR","OBJECT_NAME":"STARLINK-1258","MEAN_MOTION_DDOT":"0.0000000000000","COUNTRY_CODE":"US","ARG_OF_PERICENTER":"78.4290","RA_OF_ASC_NODE":"189.6619","MEAN_ANOMALY":"281.6837","FILE":"3363151","PERIAPSIS":"546.427","BSTAR":"0.00027812000000","ECCENTRICITY":"0.00012360","TIME_SYSTEM":"UTC","RCS_SIZE":"LARGE","LAUNCH_DATE":"2020-03-18","TLE_LINE2":"2 45381  53.0548 189.6619 0001236  78.4290 281.6837 15.06377447110999","MEAN_MOTION":"15.06377447","INCLINATION":"53.0548","TLE_LINE1":"1 45381U 20019X   22076.62660752  .00003861  00000-0  27812-3 0  9995","REF_FRAME":"TEME","ELEMENT_SET_NO":"999","CLASSIFICATION_TYPE":"U","MEAN_ELEMENT_THEORY":"SGP4","DECAY_DATE":null,"OBJECT_ID":"2020-019X","CENTER_NAME":"EARTH","OBJECT_TYPE":"PAYLOAD"},{"BSTAR":"0.00064718000000","ECCENTRICITY":"0.00013980","PERIAPSIS":"546.301","RA_OF_ASC_NODE":"189.4877","COUNTRY_CODE":"US","ARG_OF_PERICENTER":"74.6216","FILE":"3363151","MEAN_ANOMALY":"285.4927","MEAN_MOTION_DDOT":"0.0000000000000","OBJECT_NAME":"STARLINK-1264","SITE":"AFETR","NORAD_CAT_ID":"45382","SEMIMAJOR_AXIS":"6925.404","APOAPSIS":"548.237","PERIOD":"95.593","EPHEMERIS_TYPE":"0","REV_AT_EPOCH":"11082","MEAN_MOTION_DOT":"0.00009367","EPOCH":"2022-03-17T16:06:01.022688","GP_ID":"198989433","OBJECT_TYPE":"PAYLOAD","CENTER_NAME":"EARTH","DECAY_DATE":null,"OBJECT_ID":"2020-019Y","MEAN_ELEMENT_THEORY":"SGP4","CLASSIFICATION_TYPE":"U","MEAN_MOTION":"15.06381980","INCLINATION":"53.0546","ELEMENT_SET_NO":"999","TLE_LINE1":"1 45382U 20019Y   22076.67084517  .00009367  00000-0  64718-3 0  9993","REF_FRAME":"TEME","TLE_LINE2":"2 45382  53.0546 189.4877 0001398  74.6216 285.4927 15.06381980110828","LAUNCH_DATE":"2020-03-18","TIME_SYSTEM":"UTC","RCS_SIZE":"LARGE"},{"OBJECT_NAME":"STARLINK-1266","MEAN_MOTION_DDOT":"0.0000000000000","SITE":"AFETR","PERIAPSIS":"546.289","BSTAR":"0.00003459400000","ECCENTRICITY":"0.00013670","COUNTRY_CODE":"US","ARG_OF_PERICENTER":"73.1206","RA_OF_ASC_NODE":"189.7048","MEAN_ANOMALY":"286.9932","FILE":"3363151","REV_AT_EPOCH":"11099","EPOCH":"2022-03-17T14:51:41.467680","MEAN_MOTION_DOT":"0.00000234","GP_ID":"198990685","SEMIMAJOR_AXIS":"6925.371","NORAD_CAT_ID":"45383","APOAPSIS":"548.183","PERIOD":"95.593","EPHEMERIS_TYPE":"0","DECAY_DATE":null,"OBJECT_ID":"2020-019Z","CLASSIFICATION_TYPE":"U","MEAN_ELEMENT_THEORY":"SGP4","OBJECT_TYPE":"PAYLOAD","CENTER_NAME":"EARTH","LAUNCH_DATE":"2020-03-18","TLE_LINE2":"2 45383  53.0555 189.7048 0001367  73.1206 286.9932 15.06392730110996","TIME_SYSTEM":"UTC","RCS_SIZE":"LARGE","MEAN_MOTION":"15.06392730","INCLINATION":"53.0555","TLE_LINE1":"1 45383U 20019Z   22076.61922995  .00000234  00000-0  34594-4 0  9993","REF_FRAME":"TEME","ELEMENT_SET_NO":"999"},{"MEAN_ANOMALY":"285.0491","FILE":"3363151","ARG_OF_PERICENTER":"75.0653","COUNTRY_CODE":"US","RA_OF_ASC_NODE":"188.8618","PERIAPSIS":"546.253","ECCENTRICITY":"0.00014050","BSTAR":"0.00063664000000","SITE":"AFETR","OBJECT_NAME":"STARLINK-1267","MEAN_MOTION_DDOT":"0.0000000000000","EPHEMERIS_TYPE":"0","PERIOD":"95.592","APOAPSIS":"548.199","NORAD_CAT_ID":"45384","SEMIMAJOR_AXIS":"6925.361","GP_ID":"198990435","EPOCH":"2022-03-17T19:22:23.395872","MEAN_MOTION_DOT":"0.00009213","REV_AT_EPOCH":"11102","CENTER_NAME":"EARTH","OBJECT_TYPE":"PAYLOAD","CLASSIFICATION_TYPE":"U","MEAN_ELEMENT_THEORY":"SGP4","DECAY_DATE":null,"OBJECT_ID":"2020-019AA","REF_FRAME":"TEME","TLE_LINE1":"1 45384U 20019AA  22076.80721523  .00009213  00000-0  63664-3 0  9994","ELEMENT_SET_NO":"999","INCLINATION":"53.0546","MEAN_MOTION":"15.06395888","RCS_SIZE":"LARGE","TIME_SYSTEM":"UTC","LAUNCH_DATE":"2020-03-18","TLE_LINE2":"2 45384  53.0546 188.8618 0001405  75.0653 285.0491 15.06395888111022"},{"TLE_LINE2":"2 45386  53.0539 188.8530 0001326  75.3008 284.8128 15.06393402111022","LAUNCH_DATE":"2020-03-18","TIME_SYSTEM":"UTC","RCS_SIZE":"LARGE","MEAN_MOTION":"15.06393402","INCLINATION":"53.0539","ELEMENT_SET_NO":"999","TLE_LINE1":"1 45386U 20019AC  22076.81089848  .00003899  00000-0  28054-3 0  9992","REF_FRAME":"TEME","OBJECT_ID":"2020-019AC","DECAY_DATE":null,"MEAN_ELEMENT_THEORY":"SGP4","CLASSIFICATION_TYPE":"U","OBJECT_TYPE":"PAYLOAD","CENTER_NAME":"EARTH","REV_AT_EPOCH":"11102","MEAN_MOTION_DOT":"0.00003899","EPOCH":"2022-03-17T19:27:41.628672","GP_ID":"198989684","SEMIMAJOR_AXIS":"6925.369","NORAD_CAT_ID":"45386","APOAPSIS":"548.152","PERIOD":"95.593","EPHEMERIS_TYPE":"0","MEAN_MOTION_DDOT":"0.0000000000000","OBJECT_NAME":"STARLINK-1272","SITE":"AFETR","BSTAR":"0.00028054000000","ECCENTRICITY":"0.00013260","PERIAPSIS":"546.315","ARG_OF_PERICENTER":"75.3008","COUNTRY_CODE":"US","RA_OF_ASC_NODE":"188.8530","FILE":"3363151","MEAN_ANOMALY":"284.8128"},{"MEAN_MOTION_DDOT":"0.0000000000000","OBJECT_NAME":"STARLINK-1274","SITE":"AFETR","ECCENTRICITY":"0.00014650","BSTAR":"0.00165370000000","PERIAPSIS":"546.181","COUNTRY_CODE":"US","ARG_OF_PERICENTER":"70.5161","RA_OF_ASC_NODE":"189.6394","FILE":"3363151","MEAN_ANOMALY":"289.5986","REV_AT_EPOCH":"11099","MEAN_MOTION_DOT":"0.00024440","EPOCH":"2022-03-17T15:12:56.141568","GP_ID":"198989934","NORAD_CAT_ID":"45387","SEMIMAJOR_AXIS":"6925.331","APOAPSIS":"548.210","PERIOD":"95.592","EPHEMERIS_TYPE":"0","OBJECT_ID":"2020-019AD","DECAY_DATE":null,"MEAN_ELEMENT_THEORY":"SGP4","CLASSIFICATION_TYPE":"U","OBJECT_TYPE":"PAYLOAD","CENTER_NAME":"EARTH","TLE_LINE2":"2 45387  53.0531 189.6394 0001465  70.5161 289.5986 15.06405844110996","LAUNCH_DATE":"2020-03-18","TIME_SYSTEM":"UTC","RCS_SIZE":"LARGE","INCLINATION":"53.0531","MEAN_MOTION":"15.06405844","ELEMENT_SET_NO":"999","TLE_LINE1":"1 45387U 20019AD  22076.63398312  .00024440  00000-0  16537-2 0  9999","REF_FRAME":"TEME"}];
